IRIDIUM 126             
1 42809U 17039G   24215.90554424  .00000471  00000+0  16116-3 0  9999
2 42809  86.3949 279.1694 0002416  96.0606 264.0865 14.34218470372010
IRIDIUM 124             
1 42810U 17039H   24215.38100209  .00000307  00000+0  85121-4 0  9992
2 42810  86.4492 216.1262 0002354  81.6722 278.4745 14.43287775376483
IRIDIUM 128             
1 42811U 17039J   24215.75674155 -.00000046  00000+0 -23374-4 0  9994
2 42811  86.3987 310.7673 0002279  91.0781 269.0676 14.34219878372029
IRIDIUM 121             
1 42812U 17039K   24215.92457147  .00000320  00000+0  10722-3 0  9999
2 42812  86.3950 279.1843 0002310  91.4016 268.7444 14.34219632371899
IRIDIUM 133             
1 42955U 17061A   24216.20706870  .00000177  00000+0  56252-4 0  9993
2 42955  86.3991 310.6799 0002343  97.4299 262.7163 14.34217731356880
IRIDIUM 100             
1 42956U 17061B   24215.78211445  .00000191  00000+0  61108-4 0  9997
2 42956  86.3988 310.7918 0002243  95.1676 264.9776 14.34218276356827
IRIDIUM 122             
1 42957U 17061C   24215.82017029  .00000120  00000+0  35920-4 0  9990
2 42957  86.3987 310.7744 0002378  95.0137 265.1330 14.34218354356831
IRIDIUM 129             
1 42958U 17061D   24215.70600199  .00000162  00000+0  50700-4 0  9993
2 42958  86.3988 310.8818 0002542  97.6057 262.5427 14.34219342356834
